PROGRESS-MS 32          
1 65586U 25204A   25326.28671477  .00015903  00000+0  29634-3 0  9997
2 65586  51.6321 243.7129 0003927 154.7163 205.4019 15.48986583   273
CYGNUS NG-23            
1 65616U 25208A   25326.28671477  .00015903  00000+0  29634-3 0  9995
2 65616  51.6321 243.7129 0003927 154.7163 205.4019 15.48986583   222
DRAGONFLY               
1 65729U 98067XH  25327.11311095  .00114303  00000+0  11110-2 0  9996
2 65729  51.6278 235.7318 0005999 168.2345 191.8791 15.65418612 10084
1998-067XJ              
1 65730U 98067XJ  25326.95525563  .00717932  21009-3  25530-2 0  9990
2 65730  51.6202 233.1391 0012368 170.2831 189.8415 15.88239068 10101
1998-067XK              
1 65731U 98067XK  25327.11239522  .00073935  00000+0  83900-3 0  9995
2 65731  51.6301 236.4834 0006058 143.3560 216.7849 15.61664953 10072
RSP-03                  
1 65732U 98067XL  25327.01789280  .00093064  00000+0  98176-3 0  9992
2 65732  51.6291 236.5993 0006807 145.6458 214.4978 15.63435064 10070
GHS-01                  
1 65733U 98067XM  25327.02675990  .00135395  00000+0  12376-2 0  9997
2 65733  51.6300 235.9100 0006521 166.6412 193.4758 15.66861736 10086
YOTSUBA-KULOVER         
1 65941U 98067XN  25326.18419547  .00070927  00000+0  98653-3 0  9990
2 65941  51.6312 243.0309 0002452 112.9443 247.1807 15.56317116  6655
BOTAN                   
1 65942U 98067XP  25326.16005862  .00099025  00000+0  12728-2 0  9998
2 65942  51.6306 242.8705 0004684 117.1919 242.9551 15.58277645  6653
E-KAGAKU-1              
1 65943U 98067XQ  25325.99122092  .00070597  00000+0  98371-3 0  9996
2 65943  51.6316 243.9939 0004040  98.3978 261.7471 15.56265819  6622
HRC MONOBLOCK CAMERA    
1 66052U 98067XR  25326.96323918  .00033227  00000+0  53903-3 0  9997
2 66052  51.6315 239.9793 0004680 105.5235 254.6272 15.52426424  5764
HTV-X1                  
1 66174U 25241A   25326.28671477  .00015903  00000+0  29634-3 0  9992
2 66174  51.6321 243.7129 0003927 154.7163 205.4019 15.48986583  1458
